CORVUS BC1              
1 42847U 17042Y   18176.16535617  .00000102  00000-0  15402-4 0  9995
2 42847  97.5970  78.8018 0009630 160.3333 199.8260 14.91922929 51552
SILU-1 (SILKROAD 1)     
1 42903U 17021F   18176.22151065  .00026540  00000-0  19840-3 0  9996
2 42903  42.7792 279.5338 0012652 353.2398  89.0393 15.72041898 51190
MIRATA                  
1 43015U 17073C   18175.87328552  .00000692  00000-0  60875-4 0  9990
2 43015  97.7045 106.5691 0256627 246.4164 110.9908 14.78155966 32274
MAKERSAT 0              
1 43016U 17073D   18175.79036126  .00000421  00000-0  39225-4 0  9990
2 43016  97.7073 106.6086 0257992 246.7269 110.6596 14.78163350 32265
ASTERIA                 
1 43020U 98067NH  18175.89898646  .00016767  00000-0  21338-3 0  9996
2 43020  51.6418 335.6062 0002384 191.8194 168.2743 15.59480823 33698
DELLINGR (RBLE)         
1 43021U 98067NJ  18175.89368993  .00008020  00000-0  11289-3 0  9991
2 43021  51.6396 337.0443 0002380 181.3123 178.7864 15.57648309 33676
OSIRIS-3U               
1 43027U 98067NL  18175.94398494  .00033665  00000-0  34279-3 0  9999
2 43027  51.6377 331.3640 0003136 188.5637 171.5306 15.64799630 33636
AEROCUBE 7B             
1 43042U 17071F   18175.91292729  .00003696  00000-0  10463-3 0  9993
2 43042  51.6396   3.8788 0004493 294.2071  65.8443 15.38905176 30798
AEROCUBE 7C             
1 43043U 17071G   18175.91292084  .00003944  00000-0  11094-3 0  9995
2 43043  51.6399   3.8829 0004558 297.2942  62.7578 15.38908737 30768
CHEFSAT                 
1 43044U 17071H   18175.91737480  .00008168  00000-0  21230-3 0  9996
2 43044  51.6404   3.1832 0004472 296.1364  63.9160 15.39829026 30779
ASGARDIA 1              
1 43049U 17071N   18175.89300684  .00003256  00000-0  92970-4 0  9993
2 43049  51.6399   3.7564 0002097 324.3529  35.7315 15.39039330 30762
ISARA                   
1 43050U 17071P   18175.92001978  .00006711  00000-0  17712-3 0  9992
2 43050  51.6398   3.1974 0001946 318.4796  41.6040 15.39673474 30779
FAUNA                   
1 43052U 17071R   18175.94577662  .00003938  00000-0  10983-3 0  9995
2 43052  51.6400   3.3669 0001988 320.3198  39.7641 15.39174416 30768
CORVUS BC3              
1 43118U 18004H   18175.83285206  .00000924  00000-0  43209-4 0  9993
2 43118  97.5326 238.4380 0012242  71.7529 288.5038 15.22262875 24876
MICROMAS-2A             
1 43131U 18004W   18175.92160341  .00002272  00000-0  10008-3 0  9998
2 43131  97.5336 238.6393 0011487  74.8460 285.4046 15.22831721 24895
GOMX4-B                 
1 43196U 18015E   18175.89360290  .00000584  00000-0  27265-4 0  9990
2 43196  97.3481 304.6627 0020155 126.5646 233.7447 15.23552615 21703
GOMX4-A                 
1 43197U 18015F   18176.10838172  .00000521  00000-0  24547-4 0  9996
2 43197  97.3478 304.8778 0020716 127.1359 347.6941 15.23667624 21745
UBAKUSAT                
1 43466U 98067NP  18175.84248196  .00011552  00000-0  17086-3 0  9996
2 43466  51.6421 340.1505 0001783 145.0127 356.0715 15.55792657  6893
1KUNS-PF                
1 43467U 98067NQ  18176.02648329  .00009282  00000-0  13924-3 0  9994
2 43467  51.6431 339.2353 0003417 149.4975 300.9093 15.55682518  6925
BATSU-CS1 (IRAZU)       
1 43468U 98067NR  18175.87866608  .00013853  00000-0  20217-3 0  9991
2 43468  51.6431 339.9302 0001335 118.9956 241.1165 15.55966298106886
